{
  "type": "FeatureCollection",
  "features": [
    {
      "type": "Feature",
      "properties": {
        "norad_id": 15362,
        "name": "NOVA 3",
        "group": "nnss",
        "lat": -75.22582743416716,
        "lon": -99.96954493776781,
        "alt_km": 1179.0386351087318,
        "timestamp": "2025-12-09T07:41:33.476577+00:00",
        "meta_object_name": "NOVA 3",
        "meta_object_id": "1984-110A",
        "meta_epoch": "2025-12-08T18:18:02.464128",
        "meta_mean_motion": 13.23043855,
        "meta_eccentricity": 0.00307973,
        "meta_inclination": 90.1223,
        "meta_ra_of_asc_node": 80.4879,
        "meta_arg_of_pericenter": 343.1969,
        "meta_mean_anomaly": 136.1684,
        "meta_ephemeris_type": 0,
        "meta_classification_type": "U",
        "meta_norad_cat_id": 15362,
        "meta_element_set_no": 999,
        "meta_rev_at_epoch": 98646,
        "meta_bstar": 0.00022397172,
        "meta_mean_motion_dot": 1.03e-06,
        "meta_mean_motion_ddot": 0,
        "tle_line1": "1 15362U 84110A   25342.76252852  .00000103  00000+0  22397-3 0  9993",
        "tle_line2": "2 15362  90.1223  80.4879 0030797 343.1969 136.1684 13.23043855986469"
      },
      "geometry": {
        "type": "Point",
        "coordinates": [
          -99.96954493776781,
          -75.22582743416716
        ]
      }
    },
    {
      "type": "Feature",
      "properties": {
        "norad_id": 15935,
        "name": "OSCAR 30",
        "group": "nnss",
        "lat": 1.8461061271375343,
        "lon": -80.20356593221945,
        "alt_km": 1112.5401963735758,
        "timestamp": "2025-12-09T07:41:33.476588+00:00",
        "meta_object_name": "OSCAR 30",
        "meta_object_id": "1985-066A",
        "meta_epoch": "2025-12-08T20:34:52.400352",
        "meta_mean_motion": 13.36077407,
        "meta_eccentricity": 0.01694116,
        "meta_inclination": 90.1649,
        "meta_ra_of_asc_node": 99.7836,
        "meta_arg_of_pericenter": 94.7382,
        "meta_mean_anomaly": 15.8226,
        "meta_ephemeris_type": 0,
        "meta_classification_type": "U",
        "meta_norad_cat_id": 15935,
        "meta_element_set_no": 999,
        "meta_rev_at_epoch": 96401,
        "meta_bstar": 0.0002840445,
        "meta_mean_motion_dot": 1.68e-06,
        "meta_mean_motion_ddot": 0,
        "tle_line1": "1 15935U 85066A   25342.85755093  .00000168  00000+0  28404-3 0  9991",
        "tle_line2": "2 15935  90.1649  99.7836 0169411  94.7382  15.8226 13.36077407964013"
      },
      "geometry": {
        "type": "Point",
        "coordinates": [
          -80.20356593221945,
          1.8461061271375343
        ]
      }
    },
    {
      "type": "Feature",
      "properties": {
        "norad_id": 15936,
        "name": "OSCAR 24",
        "group": "nnss",
        "lat": -74.09593709385264,
        "lon": -88.38299111019518,
        "alt_km": 1246.6210426637108,
        "timestamp": "2025-12-09T07:41:33.476599+00:00",
        "meta_object_name": "OSCAR 24",
        "meta_object_id": "1985-066B",
        "meta_epoch": "2025-12-08T20:13:44.976288",
        "meta_mean_motion": 13.35935027,
        "meta_eccentricity": 0.01704578,
        "meta_inclination": 90.1788,
        "meta_ra_of_asc_node": 92.2365,
        "meta_arg_of_pericenter": 101.2137,
        "meta_mean_anomaly": 16.1688,
        "meta_ephemeris_type": 0,
        "meta_classification_type": "U",
        "meta_norad_cat_id": 15936,
        "meta_element_set_no": 999,
        "meta_rev_at_epoch": 96591,
        "meta_bstar": 0.00026157043,
        "meta_mean_motion_dot": 1.56e-06,
        "meta_mean_motion_ddot": 0,
        "tle_line1": "1 15936U 85066B   25342.84288167  .00000156  00000+0  26157-3 0  9994",
        "tle_line2": "2 15936  90.1788  92.2365 0170457 101.2137  16.1688 13.35935027965913"
      },
      "geometry": {
        "type": "Point",
        "coordinates": [
          -88.38299111019518,
          -74.09593709385264
        ]
      }
    },
    {
      "type": "Feature",
      "properties": {
        "norad_id": 17070,
        "name": "POLAR BEAR",
        "group": "nnss",
        "lat": -34.26276474726136,
        "lon": -176.35016220253448,
        "alt_km": 1015.7497808128728,
        "timestamp": "2025-12-09T07:41:33.476610+00:00",
        "meta_object_name": "POLAR BEAR",
        "meta_object_id": "1986-088A",
        "meta_epoch": "2025-12-08T23:42:53.743392",
        "meta_mean_motion": 13.75249626,
        "meta_eccentricity": 0.00407403,
        "meta_inclination": 89.6177,
        "meta_ra_of_asc_node": 183.9238,
        "meta_arg_of_pericenter": 130.1274,
        "meta_mean_anomaly": 351.1481,
        "meta_ephemeris_type": 0,
        "meta_classification_type": "U",
        "meta_norad_cat_id": 17070,
        "meta_element_set_no": 999,
        "meta_rev_at_epoch": 95927,
        "meta_bstar": 0.0001424152,
        "meta_mean_motion_dot": 1.49e-06,
        "meta_mean_motion_ddot": 0,
        "tle_line1": "1 17070U 86088A   25342.98812203  .00000149  00000+0  14242-3 0  9993",
        "tle_line2": "2 17070  89.6177 183.9238 0040740 130.1274 351.1481 13.75249626959272"
      },
      "geometry": {
        "type": "Point",
        "coordinates": [
          -176.35016220253448,
          -34.26276474726136
        ]
      }
    },
    {
      "type": "Feature",
      "properties": {
        "norad_id": 18361,
        "name": "OSCAR 27",
        "group": "nnss",
        "lat": -56.528040164378076,
        "lon": -101.42198230714675,
        "alt_km": 1021.6099801198025,
        "timestamp": "2025-12-09T07:41:33.476630+00:00",
        "meta_object_name": "OSCAR 27",
        "meta_object_id": "1987-080A",
        "meta_epoch": "2025-12-08T19:48:08.783424",
        "meta_mean_motion": 13.44905625,
        "meta_eccentricity": 0.01026386,
        "meta_inclination": 90.3742,
        "meta_ra_of_asc_node": 79.1258,
        "meta_arg_of_pericenter": 235.1417,
        "meta_mean_anomaly": 124.0048,
        "meta_ephemeris_type": 0,
        "meta_classification_type": "U",
        "meta_norad_cat_id": 18361,
        "meta_element_set_no": 999,
        "meta_rev_at_epoch": 87504,
        "meta_bstar": 0.0003214454,
        "meta_mean_motion_dot": 2.02e-06,
        "meta_mean_motion_ddot": 0,
        "tle_line1": "1 18361U 87080A   25342.82510166  .00000202  00000+0  32145-3 0  9998",
        "tle_line2": "2 18361  90.3742  79.1258 0102638 235.1417 124.0048 13.44905625875043"
      },
      "geometry": {
        "type": "Point",
        "coordinates": [
          -101.42198230714675,
          -56.528040164378076
        ]
      }
    },
    {
      "type": "Feature",
      "properties": {
        "norad_id": 18362,
        "name": "OSCAR 29",
        "group": "nnss",
        "lat": -74.20171040886675,
        "lon": -101.72470222976007,
        "alt_km": 1022.7442245131278,
        "timestamp": "2025-12-09T07:41:33.476653+00:00",
        "meta_object_name": "OSCAR 29",
        "meta_object_id": "1987-080B",
        "meta_epoch": "2025-12-08T20:17:27.476160",
        "meta_mean_motion": 13.44447461,
        "meta_eccentricity": 0.01037656,
        "meta_inclination": 90.3754,
        "meta_ra_of_asc_node": 79.5852,
        "meta_arg_of_pericenter": 258.4854,
        "meta_mean_anomaly": 217.7657,
        "meta_ephemeris_type": 0,
        "meta_classification_type": "U",
        "meta_norad_cat_id": 18362,
        "meta_element_set_no": 999,
        "meta_rev_at_epoch": 87457,
        "meta_bstar": 0.00028903872,
        "meta_mean_motion_dot": 1.81e-06,
        "meta_mean_motion_ddot": 0,
        "tle_line1": "1 18362U 87080B   25342.84545690  .00000181  00000+0  28904-3 0  9995",
        "tle_line2": "2 18362  90.3754  79.5852 0103765 258.4854 217.7657 13.44447461874578"
      },
      "geometry": {
        "type": "Point",
        "coordinates": [
          -101.72470222976007,
          -74.20171040886675
        ]
      }
    },
    {
      "type": "Feature",
      "properties": {
        "norad_id": 19070,
        "name": "OSCAR 23",
        "group": "nnss",
        "lat": -56.03314279117811,
        "lon": -164.19077690223736,
        "alt_km": 1062.7658821630248,
        "timestamp": "2025-12-09T07:41:33.476670+00:00",
        "meta_object_name": "OSCAR 23",
        "meta_object_id": "1988-033A",
        "meta_epoch": "2025-12-08T16:39:12.267936",
        "meta_mean_motion": 13.27786374,
        "meta_eccentricity": 0.01891831,
        "meta_inclination": 90.3215,
        "meta_ra_of_asc_node": 16.2672,
        "meta_arg_of_pericenter": 191.1838,
        "meta_mean_anomaly": 289.6353,
        "meta_ephemeris_type": 0,
        "meta_classification_type": "U",
        "meta_norad_cat_id": 19070,
        "meta_element_set_no": 999,
        "meta_rev_at_epoch": 82199,
        "meta_bstar": 0.00021889934,
        "meta_mean_motion_dot": 1.17e-06,
        "meta_mean_motion_ddot": 0,
        "tle_line1": "1 19070U 88033A   25342.69389199  .00000117  00000+0  21890-3 0  9990",
        "tle_line2": "2 19070  90.3215  16.2672 0189183 191.1838 289.6353 13.27786374821997"
      },
      "geometry": {
        "type": "Point",
        "coordinates": [
          -164.19077690223736,
          -56.03314279117811
        ]
      }
    }
  ]
}